{"fetched_at":"2026-03-30T20:46:33Z","count":15425,"tles":[{"name":"STARLINK-36441","line1":"1 67469U 26008AA  26087.74997357  .00034239  00000+0  12478-2 0  9996","line2":"2 67469  43.0021  97.8843 0000234 317.1607  42.9226 15.27583765 12486","category":"Starlink"}]}